0107P         2022 08 24.7685  0.967743  0.631412   95.3867  266.8044    2.7984  20201226   9.0  4.0  107P/Wilson-Harrington                                   MPEC 2015-M77
0108P         2021 09  9.9953  1.660225  0.556324  354.3501   50.3323   11.4371  20201226   8.0 12.0  108P/Ciffreo                                             MPC 89313
0109P         1992 11 30.8551  0.966725  0.962998  152.8922  139.0483  113.9756  20201226   4.0  6.0  109P/Swift-Tuttle                                        105,  420
0110P         2021 10 18.3618  2.455772  0.317984  167.4576  287.5336   11.7073  20201226   1.0 12.0  110P/Hartley                                             MPEC 2020-W26
0111P         2021 06 16.0687  3.707574  0.105749    1.0537   89.7660    4.2272  20201226   5.0  8.0  111P/Helin-Roman-Crockett                                MPC 75718
0112P         2020 02  7.9645  1.446356  0.589809   21.4942   31.8411   24.1922  20201226  14.0  6.0  112P/Urata-Niijima                                       MPC118097
0113P         2022 05 30.9314  2.138038  0.422843  115.3163  306.7167    5.3039  20201226  13.5  4.0  113P/Spitaler                                            MPEC 2015-E14
0114P         2020 01 14.0469  1.579034  0.554720  172.7882  271.0558   18.2723  20201226  11.5  6.0  114P/Wiseman-Skiff                                       MPEC 2019-TG9
0115P         2020 07 29.6720  2.056778  0.518791  120.9931  176.0094   11.6768  20201226  10.5  6.0  115P/Maury                                               MPEC 2020-SI8
0116P         2022 07 17.0472  2.195667  0.370724  173.3641   20.9904    3.6036  20201226   2.5 10.0  116P/Wild                                                MPC106348
0117P         2022 07  7.0151  3.040786  0.255763  222.7931   58.8478    8.7019  20201226   9.0  4.0  117P/Helin-Roman-Alu                                     MPEC 2015-S97
0118P         2022 11 18.8625  1.832888  0.457157  313.7113  142.2155    9.9884  20201226  12.0  4.0  118P/Shoemaker-Levy                                      MPC 95735
0119P         2022 08  8.9094  2.323871  0.392670  321.4025  104.8210    7.4376  20201226   3.5  8.0  119P/Parker-Hartley                                      MPC 84628
0120P         2021 05  7.0766  2.477937  0.374572   36.5392  358.6740    8.4897  20201226  12.0  4.0  120P/Mueller                                             MPEC 2020-SI8
0121P         2023 06 27.1634  3.735745  0.185338   11.3037   94.1344   20.1631  20201226   6.5  8.0  121P/Shoemaker-Holt                                      MPEC 2020-SI8
0122P         1995 09 13.9088  0.665272  0.962264   13.0137   79.5342   84.7838  20201226   7.5  5.2  122P/de Vico                                             MPC 75718
0123P         2019 02  5.5706  2.135848  0.448118  103.5764   46.3267   15.3120  20201226   4.0 10.0  123P/West-Hartley                                        MPC114608
0124P         2020 04 26.9294  1.647775  0.503470  183.8877    0.3625   31.5129  20201226  13.5  2.8  124P/Mrkos                                               MPEC 2020-SI8
0125P         2018 08 27.6598  1.522426  0.512896   87.2328  153.1553    9.9868  20201226   9.0  4.0  125P/Spacewatch                                          MPEC 2015-M77
0126P         2023 07  5.4142  1.714006  0.696161  356.5103  357.8556   45.8618  20201226   9.0  4.0  126P/IRAS                                                MPC 66205
0127P         2022 08 11.2115  2.208686  0.359849    6.5087   13.6429   14.2974  20201226  11.0  6.0  127P/Holt-Olmstead                                       MPC 84321
0128P         2017 01  9.2767  3.052908  0.320534  210.3399  214.2942    4.3666  20201226   8.5  4.0  128P/Shoemaker-Holt                                      MPC 89014
0129P         2022 12  4.4254  3.922803  0.083944  307.9875  184.8875    3.4426  20201226  11.0  4.0  129P/Shoemaker-Levy                                      MPEC 2019-TG9
0130P         2018 01 22.4174  1.822748  0.461343  245.9839   70.2366    6.0632  20201226  10.0  6.0  130P/McNaught-Hughes                                     MPC 78188
0131P         2019 01 24.2058  2.415759  0.343746  179.0332  214.1661    7.3542  20201226  11.0  4.0  131P/Mueller                                             MPC102101
0132P         2021 11 13.1463  1.690331  0.565174  216.3624  174.0444    5.3792  20201226  11.0  6.0  132P/Helin-Roman-Alu                                     MPEC 2020-HN5
0133P         2018 09 21.6939  2.667235  0.157071  131.7757  160.1175    1.3891  20201226  15.4  2.0  133P/Elst-Pizarro                                        MPC 94676
0134P         2014 05 19.9651  2.588598  0.586419   18.8817  202.0783    4.3419  20201226  11.5  4.0  134P/Kowal-Vavrova                                       MPC 89012
0135P         2022 04  7.1335  2.680106  0.295417   22.2713  213.0372    6.0614  20201226   9.0  4.0  135P/Shoemaker-Levy                                      MPEC 2015-E14
0136P         2025 01  2.5925  2.967613  0.292484  224.8850  137.4465    9.4242  20201226  11.0  4.0  136P/Mueller                                             MPEC 2020-W26
0137P         2018 12 13.5712  1.928656  0.573357  141.0177  233.0502    4.8534  20201226  11.0  4.0  137P/Shoemaker-Levy                                      MPEC 2020-HN5
0138P         2019 05  2.7841  1.701415  0.530350   95.5594  309.3320   10.0910  20201226  15.0  6.0  138P/Shoemaker-Levy                                      MPEC 2016-U66
0139P         2017 12  9.4598  3.408458  0.246534  165.7512  242.1858    2.3336  20201226   9.5  4.0  139P/Vaisala-Oterma                                      MPEC 2020-HN5
0140P         2015 08  6.0964  1.985761  0.691308  172.8993  343.2975    3.8305  20201226  11.5  6.0  140P/Bowell-Skiff                                        MPEC 2015-E14
0141P         2020 12 15.4102  0.807939  0.735552  153.5442  241.8487   13.9453  20201226  12.0 12.0  141P/Machholz                                            MPC105242
0141P      h  2015 08 24.3866  0.761562  0.746822  149.4500  246.0900   12.8431            18.5  4.0  141P-H/Machholz                                          MPC 95735
0142P         2021 05 12.6650  2.512885  0.498268  173.9607  175.9459   12.2454  20201226   9.0  4.0  142P/Ge-Wang                                             MPC 71683
0143P         2018 05  5.6837  2.525044  0.410632  320.4448  245.2512    4.6972  20201226  13.5  2.0  143P/Kowal-Mrkos                                         MPEC 2020-W26
0144P         2024 01 25.5251  1.383846  0.637275  216.1292  243.5207    3.9547  20201226   8.5  8.0  144P/Kushida                                             MPC104795
0145P         2017 09  1.0240  1.899327  0.541156   10.2515   26.7880   11.2693  20201226  13.5  4.0  145P/Shoemaker-Levy                                      MPC108598
0146P         2024 08  5.8082  1.424505  0.646778  316.9252   53.4107   23.0888  20201226  15.0  4.0  146P/Shoemaker-LINEAR                                    MPC100284
0147P         2023 12  6.4484  3.031467  0.236250  350.7268   93.2379    2.3515  20201226  14.0  4.0  147P/Kushida-Muramatsu                                   MPC 75720
0148P         2022 06 13.1835  1.636370  0.549796    7.4261   89.4085    3.6644  20201226   9.0  4.0  148P/Anderson-LINEAR                                     MPEC 2014-R70
0149P         2019 02 19.2727  2.635263  0.392152   44.3890  145.0020   29.9588  20201226   8.0  8.0  149P/Mueller                                             MPC 75720
0150P         2024 03 14.5792  1.758626  0.546732  245.5585  272.3986   18.5070  20201226  13.5  4.0  150P/LONEOS                                              MPC 75720
0151P         2015 10  9.8496  2.459954  0.573233  216.0469  143.1529    4.7278  20201226  10.0  6.0  151P/Helin                                               MPEC 2015-Q71
0152P         2022 01 13.3245  3.095379  0.309007  163.8649   91.8647    9.8796  20201226  11.5  4.0  152P/Helin-Lawrence                                      MPC 79346
0153P         2002 03  8.2514  0.526367  0.989631   35.1621   93.0954   27.7583  20201226   9.0  4.0  153P/Ikeya-Zhang                                         MPC 46101
0154P         2024 06 14.4208  1.559237  0.675387   47.8393  343.0271   17.6316  20201226   2.5 12.0  154P/Brewington                                          MPC 87068
0155P         2019 11 14.9524  1.801552  0.726295   14.6418   97.1958    6.3960  20201226  10.0  4.8  155P/Shoemaker                                           MPEC 2020-SI8
0156P         2020 11 17.8748  1.333021  0.614753    0.4291   35.3689   17.2628  20201226  15.5  2.0  156P/Russell-LINEAR                                      MPEC 2020-W26
0157P         2022 09  7.3166  1.554916  0.561495  154.9449  287.8757   12.5916  20201226  10.0  4.0  157P/Tritton                                             MPC104795
0158P         2021 06 27.6229  4.798033  0.024510  176.6055  135.5800    7.9881  20201226   9.0  4.0  158P/Kowal-LINEAR                                        MPEC 2016-K18
0159P         2018 05 21.9364  3.621151  0.381574    4.5983   54.9939   23.4628  20201226  10.0  4.0  159P/LONEOS                                              MPEC 2020-L06
0160P         2019 12  2.3516  1.787639  0.526254   12.6841  333.3620   15.6161  20201226  15.5  2.0  160P/LINEAR                                              MPEC 2019-TG9
0161P         2026 11 29.0039  1.277622  0.834637   46.9327    1.5079   95.7652  20201226   8.5  6.0  161P/Hartley-IRAS                                        MPC 75721
0162P         2020 12  7.8203  1.289135  0.582871  357.1344   30.9111   27.5549  20201226  12.0  4.0  162P/Siding Spring                                       MPEC 2020-W26
0163P         2019 08  5.0853  2.065865  0.451827  349.6391  102.0894   12.7080  20201226  14.5  4.0  163P/NEAT                                                MPEC 2020-HN5
